{
  "type": "FeatureCollection",
  "features": [
    {
      "type": "Feature",
      "properties": {
        "norad_id": 39227,
        "name": "ARIRANG-5 (KOMPSAT-5)",
        "group": "resource",
        "lat": 26.9140189990044,
        "lon": 177.0562634874729,
        "alt_km": 549.5584869880513,
        "timestamp": "2025-12-22T18:58:53.077700+00:00",
        "meta_object_name": "ARIRANG-5 (KOMPSAT-5)",
        "meta_object_id": "2013-042A",
        "meta_epoch": "2025-12-22T06:05:30.313248",
        "meta_mean_motion": 15.04544055,
        "meta_eccentricity": 0.0003431,
        "meta_inclination": 97.6157,
        "meta_ra_of_asc_node": 180.4216,
        "meta_arg_of_pericenter": 34.2932,
        "meta_mean_anomaly": 325.8515,
        "meta_ephemeris_type": 0,
        "meta_classification_type": "U",
        "meta_norad_cat_id": 39227,
        "meta_element_set_no": 999,
        "meta_rev_at_epoch": 67725,
        "meta_bstar": 0.00011399696,
        "meta_mean_motion_dot": 1.537e-05,
        "meta_mean_motion_ddot": 0,
        "tle_line1": "1 39227U 13042A   25356.25382307  .00001537  00000+0  11400-3 0  9998",
        "tle_line2": "2 39227  97.6157 180.4216 0003431  34.2932 325.8515 15.04544055677255"
      },
      "geometry": {
        "type": "Point",
        "coordinates": [
          177.0562634874729,
          26.9140189990044
        ]
      }
    },
    {
      "type": "Feature",
      "properties": {
        "norad_id": 39418,
        "name": "SKYSAT-A",
        "group": "resource",
        "lat": -61.753326563082545,
        "lon": 60.711267343992255,
        "alt_km": 540.0890193389878,
        "timestamp": "2025-12-22T18:58:53.077711+00:00",
        "meta_object_name": "SKYSAT-A",
        "meta_object_id": "2013-066C",
        "meta_epoch": "2025-12-22T01:47:01.235904",
        "meta_mean_motion": 15.11668448,
        "meta_eccentricity": 0.00213841,
        "meta_inclination": 97.4091,
        "meta_ra_of_asc_node": 45.9992,
        "meta_arg_of_pericenter": 202.7866,
        "meta_mean_anomaly": 157.2418,
        "meta_ephemeris_type": 0,
        "meta_classification_type": "U",
        "meta_norad_cat_id": 39418,
        "meta_element_set_no": 999,
        "meta_rev_at_epoch": 66171,
        "meta_bstar": 0.00020684815,
        "meta_mean_motion_dot": 3.473e-05,
        "meta_mean_motion_ddot": 0,
        "tle_line1": "1 39418U 13066C   25356.07431986  .00003473  00000+0  20685-3 0  9990",
        "tle_line2": "2 39418  97.4091  45.9992 0021384 202.7866 157.2418 15.11668448661717"
      },
      "geometry": {
        "type": "Point",
        "coordinates": [
          60.711267343992255,
          -61.753326563082545
        ]
      }
    },
    {
      "type": "Feature",
      "properties": {
        "norad_id": 39419,
        "name": "DUBAISAT-2",
        "group": "resource",
        "lat": -37.29273731434414,
        "lon": -7.39631036591669,
        "alt_km": 542.0663358607735,
        "timestamp": "2025-12-22T18:58:53.077720+00:00",
        "meta_object_name": "DUBAISAT-2",
        "meta_object_id": "2013-066D",
        "meta_epoch": "2025-12-22T06:24:41.283072",
        "meta_mean_motion": 15.08437651,
        "meta_eccentricity": 0.00100539,
        "meta_inclination": 97.4445,
        "meta_ra_of_asc_node": 346.3808,
        "meta_arg_of_pericenter": 284.2678,
        "meta_mean_anomaly": 75.7434,
        "meta_ephemeris_type": 0,
        "meta_classification_type": "U",
        "meta_norad_cat_id": 39419,
        "meta_element_set_no": 999,
        "meta_rev_at_epoch": 65970,
        "meta_bstar": 0.00026879567,
        "meta_mean_motion_dot": 4.128e-05,
        "meta_mean_motion_ddot": 0,
        "tle_line1": "1 39419U 13066D   25356.26714448  .00004128  00000+0  26880-3 0  9990",
        "tle_line2": "2 39419  97.4445 346.3808 0010053 284.2678  75.7434 15.08437651659706"
      },
      "geometry": {
        "type": "Point",
        "coordinates": [
          -7.39631036591669,
          -37.29273731434414
        ]
      }
    },
    {
      "type": "Feature",
      "properties": {
        "norad_id": 39574,
        "name": "GPM-CORE",
        "group": "resource",
        "lat": -3.7193307840563476,
        "lon": 177.28264306176374,
        "alt_km": 436.92853876661684,
        "timestamp": "2025-12-22T18:58:53.077731+00:00",
        "meta_object_name": "GPM-CORE",
        "meta_object_id": "2014-009C",
        "meta_epoch": "2025-12-22T05:00:50.166144",
        "meta_mean_motion": 15.44601907,
        "meta_eccentricity": 0.00092665,
        "meta_inclination": 64.9719,
        "meta_ra_of_asc_node": 180.9714,
        "meta_arg_of_pericenter": 249.0119,
        "meta_mean_anomaly": 111.0031,
        "meta_ephemeris_type": 0,
        "meta_classification_type": "U",
        "meta_norad_cat_id": 39574,
        "meta_element_set_no": 999,
        "meta_rev_at_epoch": 67047,
        "meta_bstar": 0.00017698904,
        "meta_mean_motion_dot": 8.043e-05,
        "meta_mean_motion_ddot": 0,
        "tle_line1": "1 39574U 14009C   25356.20891396  .00008043  00000+0  17699-3 0  9990",
        "tle_line2": "2 39574  64.9719 180.9714 0009266 249.0119 111.0031 15.44601907670473"
      },
      "geometry": {
        "type": "Point",
        "coordinates": [
          177.28264306176374,
          -3.7193307840563476
        ]
      }
    },
    {
      "type": "Feature",
      "properties": {
        "norad_id": 39634,
        "name": "SENTINEL-1A",
        "group": "resource",
        "lat": -27.237642867124745,
        "lon": 6.129758531832981,
        "alt_km": 701.83258819199,
        "timestamp": "2025-12-22T18:58:53.077741+00:00",
        "meta_object_name": "SENTINEL-1A",
        "meta_object_id": "2014-016A",
        "meta_epoch": "2025-12-22T05:56:29.984064",
        "meta_mean_motion": 14.59200923,
        "meta_eccentricity": 0.00012748,
        "meta_inclination": 98.1795,
        "meta_ra_of_asc_node": 1.3485,
        "meta_arg_of_pericenter": 84.9894,
        "meta_mean_anomaly": 275.1451,
        "meta_ephemeris_type": 0,
        "meta_classification_type": "U",
        "meta_norad_cat_id": 39634,
        "meta_element_set_no": 999,
        "meta_rev_at_epoch": 62421,
        "meta_bstar": 1.3297799e-05,
        "meta_mean_motion_dot": 1.7e-07,
        "meta_mean_motion_ddot": 0,
        "tle_line1": "1 39634U 14016A   25356.24756926  .00000017  00000+0  13298-4 0  9993",
        "tle_line2": "2 39634  98.1795   1.3485 0001274  84.9894 275.1451 14.59200923624218"
      },
      "geometry": {
        "type": "Point",
        "coordinates": [
          6.129758531832981,
          -27.237642867124745
        ]
      }
    },
    {
      "type": "Feature",
      "properties": {
        "norad_id": 39731,
        "name": "KAZEOSAT 1",
        "group": "resource",
        "lat": 47.308112374255515,
        "lon": 59.319904306321845,
        "alt_km": 746.8897990998657,
        "timestamp": "2025-12-22T18:58:53.077751+00:00",
        "meta_object_name": "KAZEOSAT 1",
        "meta_object_id": "2014-024A",
        "meta_epoch": "2025-12-22T07:06:10.767744",
        "meta_mean_motion": 14.42067263,
        "meta_eccentricity": 0.00012158,
        "meta_inclination": 98.3428,
        "meta_ra_of_asc_node": 67.989,
        "meta_arg_of_pericenter": 97.7259,
        "meta_mean_anomaly": 262.4069,
        "meta_ephemeris_type": 0,
        "meta_classification_type": "U",
        "meta_norad_cat_id": 39731,
        "meta_element_set_no": 999,
        "meta_rev_at_epoch": 61306,
        "meta_bstar": 5.2522148e-05,
        "meta_mean_motion_dot": 1.3e-06,
        "meta_mean_motion_ddot": 0,
        "tle_line1": "1 39731U 14024A   25356.29595796  .00000130  00000+0  52522-4 0  9990",
        "tle_line2": "2 39731  98.3428  67.9890 0001215  97.7259 262.4069 14.42067263613066"
      },
      "geometry": {
        "type": "Point",
        "coordinates": [
          59.319904306321845,
          47.308112374255515
        ]
      }
    },
    {
      "type": "Feature",
      "properties": {
        "norad_id": 39766,
        "name": "ALOS-2",
        "group": "resource",
        "lat": -23.260306496848457,
        "lon": -91.93751116838162,
        "alt_km": 636.6298578652213,
        "timestamp": "2025-12-22T18:58:53.077761+00:00",
        "meta_object_name": "ALOS-2",
        "meta_object_id": "2014-029A",
        "meta_epoch": "2025-12-22T06:42:10.019232",
        "meta_mean_motion": 14.79474307,
        "meta_eccentricity": 0.00013866,
        "meta_inclination": 97.9229,
        "meta_ra_of_asc_node": 90.9901,
        "meta_arg_of_pericenter": 105.3753,
        "meta_mean_anomaly": 254.7611,
        "meta_ephemeris_type": 0,
        "meta_classification_type": "U",
        "meta_norad_cat_id": 39766,
        "meta_element_set_no": 999,
        "meta_rev_at_epoch": 62542,
        "meta_bstar": 0.00012959097,
        "meta_mean_motion_dot": 9.17e-06,
        "meta_mean_motion_ddot": 0,
        "tle_line1": "1 39766U 14029A   25356.27928263  .00000917  00000+0  12959-3 0  9992",
        "tle_line2": "2 39766  97.9229  90.9901 0001386 105.3753 254.7611 14.79474307625422"
      },
      "geometry": {
        "type": "Point",
        "coordinates": [
          -91.93751116838162,
          -23.260306496848457
        ]
      }
    }
  ]
}